AKEBONO (EXOS-D)        
1 19822U 89016A   17295.46732784  .00020433  45396-6  39211-3 0  9995
2 19822  75.0305 144.2131 1883585 354.4156   3.8228 11.74732371924156
HST                     
1 20580U 90037B   17295.19198115  .00000720  00000-0  33383-4 0  9996
2 20580  28.4694 248.2328 0002960  99.8904 220.4406 15.08894203309487
POLAR                   
1 23802U 96013A   17294.28560511 -.00000173  00000-0  00000-0 0  9997
2 23802  78.5024 267.0359 7285576 317.6454   4.5934  1.29842950103813
SWAS                    
1 25560U 98071A   17295.51049314  .00000221  00000-0  29589-4 0  9996
2 25560  69.8980 300.8278 0009065 334.8728  25.1985 14.93468841 24557
ORSTED                  
1 25635U 99008B   17295.55154764  .00000051  00000-0  19824-4 0  9992
2 25635  96.4641 171.5083 0138211 200.8917 158.6600 14.48024574984669
CXO                     
1 25867U 99040B   17296.29268705  .00000425  00000-0  00000-0 0  9995
2 25867  73.1831 287.5045 6806989 248.5596   0.2724  0.37805235  5394
XMM-NEWTON              
1 25989U 99066A   17297.30610700 -.00000134  00000-0  00000+0 0  9994
2 25989  69.5031 357.6341 8147378  95.9559 359.8571  0.50134558 21538
TERRA                   
1 25994U 99068A   17295.31226342 -.00001386  00000-0 -29759-3 0  9993
2 25994  98.2073   8.4811 0001288  64.4381 295.6952 14.57112419949181
CLUSTER II-FM6 (SALSA)  
1 26410U 00041A   17296.33521518  .00000338  00000-0  00000-0 0  9995
2 26410 130.8939 334.0950 4325674 155.0774   0.8932  0.44175806  6319
CLUSTER II-FM7 (SAMBA)  
1 26411U 00041B   17296.34716660  .00000236  00000-0  00000-0 0  9998
2 26411 129.9570 335.4196 5018498 163.0221   0.9791  0.44236759  6350
CLUSTER II-FM5 (RUMBA)  
1 26463U 00045A   17296.33922361  .00000298  00000-0  00000-0 0  9993
2 26463 133.5035 333.9126 4722499 161.2536   0.9567  0.44233802  6235
CLUSTER II-FM8 (TANGO)  
1 26464U 00045B   17293.23638570  .00000388  00000-0  00000+0 0  9995
2 26464 130.8939 334.0766 4325537 154.9879 234.2621  0.44220242 53961
ODIN                    
1 26702U 01007A   17295.49858100 -.00000127  00000-0 -42773-5 0  9994
2 26702  97.6061 311.1387 0010397 346.9933  13.1025 15.07307598910826
TIMED                   
1 26998U 01055B   17294.88822820  .00000178  00000-0  23480-4 0  9993
2 26998  74.0724  63.0023 0000975 329.3688  30.7435 14.87949247860274
RHESSI                  
1 27370U 02004A   17295.22991093  .00003699  00000-0  13211-3 0  9992
2 27370  38.0338 354.0485 0011664 356.6421   3.4269 15.29200267865726
CORIOLIS                
1 27640U 03001A   17294.94737784  .00000010  00000-0  26066-4 0  9990
2 27640  98.7429 303.4519 0013223 306.0514 111.0705 14.18957820765946
SORCE                   
1 27651U 03004A   17295.16501151  .00000229  00000-0  38345-4 0  9992
2 27651  39.9966 334.0500 0022830  46.5727 313.6957 14.88751910799728
MOST                    
1 27843U 03031D   17294.96873339 -.00000010  00000-0  15870-4 0  9999
2 27843  98.7146 301.2997 0010209  14.7757 345.3717 14.20555329741957
SCISAT 1                
1 27858U 03036A   17295.49634891  .00000117  00000-0  21609-4 0  9991
2 27858  73.9318 297.0597 0007923 357.7271   2.3866 14.77161795764577
SWIFT                   
1 28485U 04047A   17295.41749289  .00001222  00000-0  54623-4 0  9991
2 28485  20.5576 325.1900 0011533  46.6759 313.4635 15.03899294707384
FORMOSAT-3 FM6          
1 29047U 06011A   17295.20761599  .00000016  00000-0  22669-4 0  9999
2 29047  71.9780 288.0042 0052865 292.3235  67.2302 14.28604567602902
FORMOSAT-3 FM1          
1 29048U 06011B   17294.91207805  .00000041  00000-0  32551-4 0  9991
2 29048  71.9678 200.6207 0045828 250.6838 108.9339 14.28540699605348
FORMOSAT-3 FM5          
1 29049U 06011C   17295.52450194  .00000092  00000-0  52624-4 0  9990
2 29049  72.0221   5.5474 0037227 283.7989  75.9006 14.28596116601212
FORMOSAT-3 FM3          
1 29050U 06011D   17295.44868034  .00000218  00000-0  56505-4 0  9991
2 29050  72.0156 250.5465 0052371 284.9656  74.5702 14.58572660615128
FORMOSAT-3 FM4          
1 29051U 06011E   17294.91364744  .00000065  00000-0  41366-4 0  9991
2 29051  72.0046 270.6364 0067718 163.1634 197.1773 14.28621650603716
FORMOSAT-3 FM2          
1 29052U 06011F   17294.62911699  .00000113  00000-0  60549-4 0  9995
2 29052  72.0354 342.5466 0042298 249.1672 110.4932 14.28716891601179
CLOUDSAT                
1 29107U 06016A   17295.53972124  .00000083  00000-0  28452-4 0  9995
2 29107  98.2131 237.6436 0001677  66.5103 293.6272 14.57112595610972
CALIPSO                 
1 29108U 06016B   17294.92022836  .00000160  00000-0  45489-4 0  9999
2 29108  98.2153 236.6037 0001322  77.9069 282.2278 14.57086863610795
HINODE (SOLAR-B)        
1 29479U 06041A   17294.95261617  .00000078  00000-0  23651-4 0  9998
2 29479  98.1689 298.5161 0017163 175.0684 185.0691 14.64863436591948
SJ-6C                   
1 29505U 06046A   17295.50497264  .00000603  00000-0  61360-4 0  9997
2 29505  97.8248 297.0241 0004211  47.2801 312.8782 14.94379894598883
SJ-6D                   
1 29506U 06046B   17295.49463457  .00000524  00000-0  55469-4 0  9998
2 29506  97.8436 296.4319 0003757  95.1996 264.9668 14.93316703598556
AGILE                   
1 31135U 07013A   17294.37184152  .00003176  00000-0  67966-4 0  9993
2 31135   2.4672 206.2549 0012541 165.7744 194.2663 15.30147777583077
AIM                     
1 31304U 07015A   17294.67690055  .00001367  00000-0  83033-4 0  9993
2 31304  98.0026 119.6724 0006459  71.0615 289.1313 15.12331265574059
FGRST (GLAST)           
1 33053U 08029A   17294.94564764  .00000663  00000-0  21445-4 0  9996
2 33053  25.5822 221.0485 0012185 309.5560  50.3898 15.10982061516498
WISE                    
1 36119U 09071A   17295.17781340  .00001324  00000-0  50275-4 0  9995
2 36119  97.4407 322.9590 0001919 185.1409 174.9811 15.28607730435676
SDO                     
1 36395U 10005A   17294.53474543 -.00000045  00000-0  00000+0 0  9999
2 36395  28.9035 138.1676 0001387  88.6876 254.0922  1.00274329 28337
CRYOSAT 2               
1 36508U 10013A   17294.94546051  .00000014  00000-0  26681-5 0  9997
2 36508  92.0255 232.8825 0005146 271.2552  88.8066 14.52173896399572
SPEKTR-R                
1 37755U 11037A   17272.04107253 -.00000112  00000-0  00000+0 0  9994
2 37755  68.5092 305.0853 6289769 352.4494   6.5188  0.10438175  2594
GCOM-W1 (SHIZUKU)       
1 38337U 12025A   17294.99702510  .00000089  00000-0  29882-4 0  9990
2 38337  98.2148 233.3713 0001906  66.2620 354.9987 14.57127218288829
NUSTAR                  
1 38358U 12031A   17294.34353921  .00001129  00000-0  45060-4 0  9999
2 38358   6.0262 113.6156 0012393 309.6312  50.2724 14.87849848291261
RBSP A                  
1 38752U 12046A   17293.96116818 -.00000052  00000-0  57223-3 0  9990
2 38752   9.8658 132.9588 6819357 250.1886  28.6082  2.68110193 50268
RBSP B                  
1 38753U 12046B   17293.95863539 -.00000035  00000-0  77294-3 0  9990
2 38753   9.8484 143.7635 6832083 229.3531  47.7709  2.65135588 49870
NEOSSAT                 
1 39089U 13009D   17294.63774133 -.00000008  00000-0  12652-4 0  9998
2 39089  98.5431 136.7318 0010073 286.1708  73.8368 14.34403343243512
BRITE-AUSTRIA           
1 39091U 13009F   17294.93515747  .00000017  00000-0  21452-4 0  9995
2 39091  98.5379 138.4634 0009508 295.2166  64.8033 14.35045347243668
UNIBRITE                
1 39092U 13009G   17294.87586449  .00000024  00000-0  23748-4 0  9994
2 39092  98.5390 138.0838 0008322 288.5048  71.5233 14.34919962243637
IRIS                    
1 39197U 13033A   17295.13051264  .00000182  00000-0  31966-4 0  9995
2 39197  97.9304 114.7146 0028875 123.3427 237.0555 14.78449906232869
HISAKI (SPRINT-A)       
1 39253U 13049A   17294.89882114  .00000119  00000-0  74141-4 0  9995
2 39253  29.7202  80.6868 0137350 325.7763  33.4020 13.55178730202392
CASSIOPE                
1 39265U 13055A   17294.92067417  .00003713  00000-0  10955-3 0  9995
2 39265  80.9711 243.8322 0681967 245.9040 106.9385 14.24027413209548
DANDE                   
1 39267U 13055C   17294.90248447  .00003095  00000-0  93331-4 0  9992
2 39267  81.0118 256.7864 0708258 266.9389  85.0589 14.18021272206640
STSAT-3                 
1 39422U 13066G   17295.45399609 -.00000043  00000-0  12199-5 0  9990
2 39422  97.6448 353.8109 0023116 168.4117 191.7664 14.89510574212878
BRITE-PL                
1 39431U 13066R   17295.22808620  .00000117  00000-0  34571-4 0  9991
2 39431  97.7229 261.8173 0203988  82.5664 279.8658 14.46877522206826
SWARM B                 
1 39451U 13067A   17294.93181140  .00000645  00000-0  27387-4 0  9995
2 39451  87.7594 209.9750 0001778  70.1038 290.0399 15.21146764202551
SWARM A                 
1 39452U 13067B   17294.94988905  .00001688  00000-0  37872-4 0  9999
2 39452  87.3447 124.3557 0002574 101.6690 258.4855 15.42560815219631
SWARM C                 
1 39453U 13067C   17294.94982355  .00001702  00000-0  38201-4 0  9997
2 39453  87.3451 125.7776 0002620 101.7127 258.4424 15.42560952219592
BRITE-TORONTO           
1 40020U 14033L   17295.56691230  .00000089  00000-0  23998-4 0  9995
2 40020  97.8154 160.4958 0086232 281.9464  77.2083 14.66433521178750
OCO 2                   
1 40059U 14035A   17294.91439459  .00000047  00000-0  20523-4 0  9995
2 40059  98.2151 234.4704 0001166  65.8851 294.2469 14.57096987175833
BRITE-PL 2              
1 40119U 14049B   17295.23241318  .00000231  00000-0  34035-4 0  9996
2 40119  97.9318  20.4354 0018322  38.6698 321.5824 14.84199714172001
RESURS P2               
1 40360U 14087A   17295.53746622  .00000831  00000-0  29215-4 0  9997
2 40360  97.2766  26.9911 0011927  58.8421 358.1418 15.32100812157880
MMS 1                   
1 40482U 15011A   17291.01041667 -.00000265  00000-0  00000+0 0  9994
2 40482  22.1162 308.9046 9011925 159.7091 101.3168  0.35514944  8095
MMS 2                   
1 40483U 15011B   17291.01041667 -.00000265  00000-0  00000+0 0  9995
2 40483  22.1152 308.9018 9010279 159.7028 101.3423  0.35514888  8085
MMS 3                   
1 40484U 15011C   17291.01041667 -.00000265  00000-0  00000+0 0  9996
2 40484  22.1223 308.9264 9010654 159.6865 101.3229  0.35514880  8089
MMS 4                   
1 40485U 15011D   17291.01041667 -.00000265  00000-0  00000+0 0  9997
2 40485  22.1150 308.9070 9010029 159.7169 101.2975  0.35514846  8076
ASTROSAT                
1 40930U 15052A   17295.01674919  .00000819  00000-0  26253-4 0  9990
2 40930   5.9959  51.5128 0008353 242.4762 117.4568 14.76163432111724
DAMPE                   
1 41173U 15078A   17295.49810868  .00000159  00000-0  94911-5 0  9999
2 41173  97.2903 299.9474 0015743  69.2228 100.4237 15.23619926102847
PISAT                   
1 41784U 16059B   17294.73806823  .00000162  00000-0  40421-4 0  9999
2 41784  98.1532 354.9477 0033204 122.2415 238.2013 14.63265212 57083
HXMT                    
1 42758U 17034A   17295.42421640 -.00000217  00000-0  00000+0 0  9998
2 42758  43.0194 309.3201 0006841  67.0891  71.5835 15.08113095 19526
FLYING LAPTOP           
1 42831U 17042G   17295.35068240  .00000449  00000-0  51205-4 0  9998
2 42831  97.6074 201.4446 0012669 271.7159  88.2609 14.90725863 14890
